start=new Date('2022-06-14T00:00:00.000Z').valueOf();
sats=[{"RA_OF_ASC_NODE":"347.3160","EPOCH":"2022-06-13T14:00:01.000224","TLE_LINE1":"1 51775U 22017H   22164.58334491 -.00041666  00000-0 -26124-2 0  9991","RCS_SIZE":"LARGE","OBJECT_NAME":"STARLINK-3620","APOAPSIS":"540.705","ECCENTRICITY":"0.00015510","CLASSIFICATION_TYPE":"U","MEAN_ANOMALY":"217.8150","PERIAPSIS":"538.559","REV_AT_EPOCH":"130","ARG_OF_PERICENTER":"68.3334","BSTAR":"-0.00261240000000","GP_ID":"206060686","MEAN_ELEMENT_THEORY":"SGP4","MEAN_MOTION":"15.08877048","CENTER_NAME":"EARTH","OBJECT_ID":"2022-017H","INCLINATION":"53.2145","MEAN_MOTION_DDOT":"0.0000000000000","FILE":"3494620","NORAD_CAT_ID":"51775","SEMIMAJOR_AXIS":"6917.767","TIME_SYSTEM":"UTC","MEAN_MOTION_DOT":"-0.00041666","PERIOD":"95.435","LAUNCH_DATE":"2022-02-25","REF_FRAME":"TEME","DECAY_DATE":null,"SITE":"AFWTR","EPHEMERIS_TYPE":"0","COUNTRY_CODE":"US","TLE_LINE2":"2 51775  53.2145 347.3160 0001551  68.3334 217.8150 15.08877048  1306","OBJECT_TYPE":"PAYLOAD","ELEMENT_SET_NO":"999"},{"OBJECT_TYPE":"PAYLOAD","TLE_LINE2":"2 51776  53.2139 347.3173 0001473  56.1617 309.9908 15.08844124  1309","ELEMENT_SET_NO":"999","COUNTRY_CODE":"US","SITE":"AFWTR","EPHEMERIS_TYPE":"0","DECAY_DATE":null,"REF_FRAME":"TEME","LAUNCH_DATE":"2022-02-25","PERIOD":"95.437","TIME_SYSTEM":"UTC","MEAN_MOTION_DOT":"-0.00002516","FILE":"3494620","NORAD_CAT_ID":"51776","SEMIMAJOR_AXIS":"6917.868","OBJECT_ID":"2022-017J","INCLINATION":"53.2139","MEAN_MOTION_DDOT":"0.0000000000000","CENTER_NAME":"EARTH","MEAN_MOTION":"15.08844124","MEAN_ELEMENT_THEORY":"SGP4","GP_ID":"206061937","BSTAR":"-0.00014005000000","ARG_OF_PERICENTER":"56.1617","REV_AT_EPOCH":"130","PERIAPSIS":"538.714","MEAN_ANOMALY":"309.9908","CLASSIFICATION_TYPE":"U","ECCENTRICITY":"0.00014730","APOAPSIS":"540.752","OBJECT_NAME":"STARLINK-3608","EPOCH":"2022-06-13T14:00:01.000224","TLE_LINE1":"1 51776U 22017J   22164.58334491 -.00002516  00000-0 -14005-3 0  9999","RCS_SIZE":"LARGE","RA_OF_ASC_NODE":"347.3173"},{"CLASSIFICATION_TYPE":"U","ECCENTRICITY":"0.00013730","MEAN_ANOMALY":"262.7529","PERIAPSIS":"538.748","EPOCH":"2022-06-13T14:00:01.000224","RCS_SIZE":"LARGE","TLE_LINE1":"1 51777U 22017K   22164.58334491 -.00006637  00000-0 -39912-3 0  9992","RA_OF_ASC_NODE":"347.3172","APOAPSIS":"540.648","OBJECT_NAME":"STARLINK-3625","MEAN_ELEMENT_THEORY":"SGP4","GP_ID":"206061688","BSTAR":"-0.00039912000000","CENTER_NAME":"EARTH","MEAN_MOTION":"15.08855586","REV_AT_EPOCH":"130","ARG_OF_PERICENTER":"63.4135","PERIOD":"95.437","TIME_SYSTEM":"UTC","MEAN_MOTION_DOT":"-0.00006637","LAUNCH_DATE":"2022-02-25","OBJECT_ID":"2022-017K","INCLINATION":"53.2144","MEAN_MOTION_DDOT":"0.0000000000000","FILE":"3494620","NORAD_CAT_ID":"51777","SEMIMAJOR_AXIS":"6917.833","COUNTRY_CODE":"US","OBJECT_TYPE":"PAYLOAD","TLE_LINE2":"2 51777  53.2144 347.3172 0001373  63.4135 262.7529 15.08855586  1309","ELEMENT_SET_NO":"999","DECAY_DATE":null,"REF_FRAME":"TEME","SITE":"AFWTR","EPHEMERIS_TYPE":"0"},{"INCLINATION":"53.2175","OBJECT_ID":"2022-017L","MEAN_MOTION_DDOT":"0.0000000000000","NORAD_CAT_ID":"51778","FILE":"3494620","SEMIMAJOR_AXIS":"6905.138","PERIOD":"95.174","TIME_SYSTEM":"UTC","MEAN_MOTION_DOT":"-0.00721042","LAUNCH_DATE":"2022-02-25","DECAY_DATE":null,"REF_FRAME":"TEME","SITE":"AFWTR","EPHEMERIS_TYPE":"0","COUNTRY_CODE":"US","TLE_LINE2":"2 51778  53.2175 337.3690 0001496  68.0103 167.1943 15.13018350  1304","OBJECT_TYPE":"PAYLOAD","ELEMENT_SET_NO":"999","EPOCH":"2022-06-13T14:00:01.000224","TLE_LINE1":"1 51778U 22017L   22164.58334491 -.00721042  00000-0 -43339-1 0  9993","RCS_SIZE":"LARGE","RA_OF_ASC_NODE":"337.3690","APOAPSIS":"528.036","OBJECT_NAME":"STARLINK-3615","CLASSIFICATION_TYPE":"U","ECCENTRICITY":"0.00014960","PERIAPSIS":"525.970","MEAN_ANOMALY":"167.1943","REV_AT_EPOCH":"130","ARG_OF_PERICENTER":"68.0103","GP_ID":"206060436","MEAN_ELEMENT_THEORY":"SGP4","BSTAR":"-0.04333900000000","CENTER_NAME":"EARTH","MEAN_MOTION":"15.13018350"},{"SEMIMAJOR_AXIS":"6917.874","NORAD_CAT_ID":"51779","FILE":"3494620","MEAN_MOTION_DDOT":"0.0000000000000","OBJECT_ID":"2022-017M","INCLINATION":"53.2150","LAUNCH_DATE":"2022-02-25","MEAN_MOTION_DOT":"-0.00003226","TIME_SYSTEM":"UTC","PERIOD":"95.437","EPHEMERIS_TYPE":"0","SITE":"AFWTR","REF_FRAME":"TEME","DECAY_DATE":null,"ELEMENT_SET_NO":"999","TLE_LINE2":"2 51779  53.2150 347.3056 0001528  52.1361 334.0703 15.08841950  1304","OBJECT_TYPE":"PAYLOAD","COUNTRY_CODE":"US","OBJECT_NAME":"STARLINK-3611","APOAPSIS":"540.796","RA_OF_ASC_NODE":"347.3056","TLE_LINE1":"1 51779U 22017M   22164.58334491 -.00003226  00000-0 -18467-3 0  9997","RCS_SIZE":"LARGE","EPOCH":"2022-06-13T14:00:01.000224","MEAN_ANOMALY":"334.0703","PERIAPSIS":"538.682","ECCENTRICITY":"0.00015280","CLASSIFICATION_TYPE":"U","REV_AT_EPOCH":"130","ARG_OF_PERICENTER":"52.1361","MEAN_MOTION":"15.08841950","CENTER_NAME":"EARTH","BSTAR":"-0.00018467000000","MEAN_ELEMENT_THEORY":"SGP4","GP_ID":"206061186"},{"MEAN_MOTION_DOT":"-0.00035371","TIME_SYSTEM":"UTC","PERIOD":"95.436","LAUNCH_DATE":"2022-02-25","MEAN_MOTION_DDOT":"0.0000000000000","OBJECT_ID":"2022-017N","INCLINATION":"53.2182","SEMIMAJOR_AXIS":"6917.801","NORAD_CAT_ID":"51780","FILE":"3494620","COUNTRY_CODE":"US","ELEMENT_SET_NO":"999","OBJECT_TYPE":"PAYLOAD","TLE_LINE2":"2 51780  53.2182 347.3104 0002065  41.0928  39.8818 15.08866023  1303","REF_FRAME":"TEME","DECAY_DATE":null,"EPHEMERIS_TYPE":"0","SITE":"AFWTR","ECCENTRICITY":"0.00020650","CLASSIFICATION_TYPE":"U","PERIAPSIS":"538.237","MEAN_ANOMALY":"39.8818","RA_OF_ASC_NODE":"347.3104","TLE_LINE1":"1 51780U 22017N   22164.58334491 -.00035371  00000-0 -22136-2 0  9992","RCS_SIZE":"LARGE","EPOCH":"2022-06-13T14:00:01.000224","OBJECT_NAME":"STARLINK-3617","APOAPSIS":"541.094","BSTAR":"-0.00221360000000","MEAN_ELEMENT_THEORY":"SGP4","GP_ID":"206061438","MEAN_MOTION":"15.08866023","CENTER_NAME":"EARTH","REV_AT_EPOCH":"130","ARG_OF_PERICENTER":"41.0928"},{"MEAN_ELEMENT_THEORY":"SGP4","GP_ID":"206073292","BSTAR":"0.00136980000000","CENTER_NAME":"EARTH","MEAN_MOTION":"15.08829971","ARG_OF_PERICENTER":"49.2694","REV_AT_EPOCH":"1803","CLASSIFICATION_TYPE":"U","ECCENTRICITY":"0.00018600","MEAN_ANOMALY":"8.5006","PERIAPSIS":"538.489","TLE_LINE1":"1 51781U 22017P   22164.91667824  .00021574  00000-0  13698-2 0  9990","RCS_SIZE":"LARGE","EPOCH":"2022-06-13T22:00:00.999936","RA_OF_ASC_NODE":"345.8144","APOAPSIS":"541.063","OBJECT_NAME":"STARLINK-3580","COUNTRY_CODE":"US","ELEMENT_SET_NO":"999","TLE_LINE2":"2 51781  53.2176 345.8144 0001860  49.2694   8.5006 15.08829971 18037","OBJECT_TYPE":"PAYLOAD","DECAY_DATE":null,"REF_FRAME":"TEME","EPHEMERIS_TYPE":"0","SITE":"AFWTR","PERIOD":"95.438","MEAN_MOTION_DOT":"0.00021574","TIME_SYSTEM":"UTC","LAUNCH_DATE":"2022-02-25","MEAN_MOTION_DDOT":"0.0000000000000","INCLINATION":"53.2176","OBJECT_ID":"2022-017P","SEMIMAJOR_AXIS":"6917.911","FILE":"3495111","NORAD_CAT_ID":"51781"},{"ECCENTRICITY":"0.00017620","CLASSIFICATION_TYPE":"U","MEAN_ANOMALY":"260.9089","PERIAPSIS":"538.551","RA_OF_ASC_NODE":"355.8236","EPOCH":"2022-06-13T22:00:00.999936","TLE_LINE1":"1 51782U 22017Q   22164.91667824  .00013569  00000-0  86915-3 0  9999","RCS_SIZE":"LARGE","OBJECT_NAME":"STARLINK-3616","APOAPSIS":"540.989","BSTAR":"0.00086915000000","GP_ID":"206073290","MEAN_ELEMENT_THEORY":"SGP4","MEAN_MOTION":"15.08831910","CENTER_NAME":"EARTH","REV_AT_EPOCH":"1788","ARG_OF_PERICENTER":"61.8784","TIME_SYSTEM":"UTC","MEAN_MOTION_DOT":"0.00013569","PERIOD":"95.438","LAUNCH_DATE":"2022-02-25","OBJECT_ID":"2022-017Q","INCLINATION":"53.2153","MEAN_MOTION_DDOT":"0.0000000000000","NORAD_CAT_ID":"51782","FILE":"3495111","SEMIMAJOR_AXIS":"6917.905","COUNTRY_CODE":"US","OBJECT_TYPE":"PAYLOAD","TLE_LINE2":"2 51782  53.2153 355.8236 0001762  61.8784 260.9089 15.08831910 17880","ELEMENT_SET_NO":"999","REF_FRAME":"TEME","DECAY_DATE":null,"SITE":"AFWTR","EPHEMERIS_TYPE":"0"},{"DECAY_DATE":null,"REF_FRAME":"TEME","SITE":"AFWTR","EPHEMERIS_TYPE":"0","COUNTRY_CODE":"US","OBJECT_TYPE":"PAYLOAD","TLE_LINE2":"2 51783  53.2172 347.3090 0001629  58.5370   7.6133 15.08850585  1307","ELEMENT_SET_NO":"999","INCLINATION":"53.2172","OBJECT_ID":"2022-017R","MEAN_MOTION_DDOT":"0.0000000000000","FILE":"3494620","NORAD_CAT_ID":"51783","SEMIMAJOR_AXIS":"6917.848","PERIOD":"95.437","TIME_SYSTEM":"UTC","MEAN_MOTION_DOT":"-0.00002860","LAUNCH_DATE":"2022-02-25","REV_AT_EPOCH":"130","ARG_OF_PERICENTER":"58.5370","MEAN_ELEMENT_THEORY":"SGP4","GP_ID":"206060687","BSTAR":"-0.00016163000000","CENTER_NAME":"EARTH","MEAN_MOTION":"15.08850585","EPOCH":"2022-06-13T14:00:01.000224","RCS_SIZE":"LARGE","TLE_LINE1":"1 51783U 22017R   22164.58334491 -.00002860  00000-0 -16163-3 0  9996","RA_OF_ASC_NODE":"347.3090","APOAPSIS":"540.840","OBJECT_NAME":"STARLINK-3628","CLASSIFICATION_TYPE":"U","ECCENTRICITY":"0.00016290","PERIAPSIS":"538.586","MEAN_ANOMALY":"7.6133"},{"MEAN_MOTION":"15.08842080","CENTER_NAME":"EARTH","BSTAR":"0.00045427000000","GP_ID":"206061938","MEAN_ELEMENT_THEORY":"SGP4","REV_AT_EPOCH":"130","ARG_OF_PERICENTER":"61.0613","PERIAPSIS":"538.602","MEAN_ANOMALY":"270.0922","ECCENTRICITY":"0.00016440","CLASSIFICATION_TYPE":"U","OBJECT_NAME":"STARLINK-3632","APOAPSIS":"540.876","RA_OF_ASC_NODE":"357.3178","EPOCH":"2022-06-13T14:00:01.000224","TLE_LINE1":"1 51784U 22017S   22164.58334491  .00006949  00000-0  45427-3 0  9992","RCS_SIZE":"LARGE","TLE_LINE2":"2 51784  53.2149 357.3178 0001644  61.0613 270.0922 15.08842080  1309","OBJECT_TYPE":"PAYLOAD","ELEMENT_SET_NO":"999","COUNTRY_CODE":"US","SITE":"AFWTR","EPHEMERIS_TYPE":"0","REF_FRAME":"TEME","DECAY_DATE":null,"LAUNCH_DATE":"2022-02-25","TIME_SYSTEM":"UTC","MEAN_MOTION_DOT":"0.00006949","PERIOD":"95.437","NORAD_CAT_ID":"51784","FILE":"3494620","SEMIMAJOR_AXIS":"6917.874","OBJECT_ID":"2022-017S","INCLINATION":"53.2149","MEAN_MOTION_DDOT":"0.0000000000000"}];
